CCSDS_OMM_VERS = 2.0
CREATION_DATE  = 
ORIGINATOR     = 

OBJECT_NAME    = SL-14 R/B
OBJECT_ID      = 1991-042B
CENTER_NAME    = EARTH
REF_FRAME      = TEME
TIME_SYSTEM    = UTC
MEAN_ELEMENT_THEORY = SGP/SGP4

EPOCH          = 2026-02-05T00:10:39.753984
MEAN_MOTION    = 14.81798168
ECCENTRICITY   = .00168607
INCLINATION    = 82.4901
RA_OF_ASC_NODE = 250.8370
ARG_OF_PERICENTER = 353.7367
MEAN_ANOMALY   = 6.3634

EPHEMERIS_TYPE = 0
CLASSIFICATION_TYPE = U
NORAD_CAT_ID   = 21423
ELEMENT_SET_NO = 999
REV_AT_EPOCH   = 84823
BSTAR          = .56198807E-4
MEAN_MOTION_DOT = .468E-5
MEAN_MOTION_DDOT = 0

CCSDS_OMM_VERS = 2.0
CREATION_DATE  = 
ORIGINATOR     = 

OBJECT_NAME    = ERS-1
OBJECT_ID      = 1991-050A
CENTER_NAME    = EARTH
REF_FRAME      = TEME
TIME_SYSTEM    = UTC
MEAN_ELEMENT_THEORY = SGP/SGP4

EPOCH          = 2026-02-05T12:19:25.786560
MEAN_MOTION    = 14.39422600
ECCENTRICITY   = .0030989
INCLINATION    = 98.7896
RA_OF_ASC_NODE = 53.9390
ARG_OF_PERICENTER = 298.6878
MEAN_ANOMALY   = 61.1195

EPHEMERIS_TYPE = 0
CLASSIFICATION_TYPE = U
NORAD_CAT_ID   = 21574
ELEMENT_SET_NO = 999
REV_AT_EPOCH   = 81110
BSTAR          = .16657E-3
MEAN_MOTION_DOT = .475E-5
MEAN_MOTION_DDOT = 0

CCSDS_OMM_VERS = 2.0
CREATION_DATE  = 
ORIGINATOR     = 

OBJECT_NAME    = ARIANE 40 R/B
OBJECT_ID      = 1991-050F
CENTER_NAME    = EARTH
REF_FRAME      = TEME
TIME_SYSTEM    = UTC
MEAN_ELEMENT_THEORY = SGP/SGP4

EPOCH          = 2026-02-05T02:04:04.644768
MEAN_MOTION    = 14.42868764
ECCENTRICITY   = .00036058
INCLINATION    = 98.2080
RA_OF_ASC_NODE = 89.5353
ARG_OF_PERICENTER = 154.2480
MEAN_ANOMALY   = 205.8891

EPHEMERIS_TYPE = 0
CLASSIFICATION_TYPE = U
NORAD_CAT_ID   = 21610
ELEMENT_SET_NO = 999
REV_AT_EPOCH   = 81429
BSTAR          = .13104108E-3
MEAN_MOTION_DOT = .396E-5
MEAN_MOTION_DDOT = 0

CCSDS_OMM_VERS = 2.0
CREATION_DATE  = 
ORIGINATOR     = 

OBJECT_NAME    = INTERCOSMOS 25
OBJECT_ID      = 1991-086A
CENTER_NAME    = EARTH
REF_FRAME      = TEME
TIME_SYSTEM    = UTC
MEAN_ELEMENT_THEORY = SGP/SGP4

EPOCH          = 2026-02-05T05:03:07.960320
MEAN_MOTION    = 12.11910767
ECCENTRICITY   = .1486612
INCLINATION    = 82.6088
RA_OF_ASC_NODE = 329.6349
ARG_OF_PERICENTER = 186.9062
MEAN_ANOMALY   = 170.9281

EPHEMERIS_TYPE = 0
CLASSIFICATION_TYPE = U
NORAD_CAT_ID   = 21819
ELEMENT_SET_NO = 999
REV_AT_EPOCH   = 49275
BSTAR          = .18452E-3
MEAN_MOTION_DOT = .954E-5
MEAN_MOTION_DDOT = 0

CCSDS_OMM_VERS = 2.0
CREATION_DATE  = 
ORIGINATOR     = 

OBJECT_NAME    = SL-8 R/B
OBJECT_ID      = 1992-008B
CENTER_NAME    = EARTH
REF_FRAME      = TEME
TIME_SYSTEM    = UTC
MEAN_ELEMENT_THEORY = SGP/SGP4

EPOCH          = 2026-02-05T11:00:20.986272
MEAN_MOTION    = 13.75969439
ECCENTRICITY   = .0033661
INCLINATION    = 82.9271
RA_OF_ASC_NODE = 291.7552
ARG_OF_PERICENTER = 223.3304
MEAN_ANOMALY   = 312.2783

EPHEMERIS_TYPE = 0
CLASSIFICATION_TYPE = U
NORAD_CAT_ID   = 21876
ELEMENT_SET_NO = 999
REV_AT_EPOCH   = 70498
BSTAR          = .64767E-4
MEAN_MOTION_DOT = .78E-6
MEAN_MOTION_DDOT = 0

CCSDS_OMM_VERS = 2.0
CREATION_DATE  = 
ORIGINATOR     = 

OBJECT_NAME    = SL-8 R/B
OBJECT_ID      = 1992-020B
CENTER_NAME    = EARTH
REF_FRAME      = TEME
TIME_SYSTEM    = UTC
MEAN_ELEMENT_THEORY = SGP/SGP4

EPOCH          = 2026-02-05T09:20:38.423040
MEAN_MOTION    = 13.75544445
ECCENTRICITY   = .0029506
INCLINATION    = 82.9324
RA_OF_ASC_NODE = 177.7364
ARG_OF_PERICENTER = 30.3498
MEAN_ANOMALY   = 358.0231

EPHEMERIS_TYPE = 0
CLASSIFICATION_TYPE = U
NORAD_CAT_ID   = 21938
ELEMENT_SET_NO = 999
REV_AT_EPOCH   = 69669
BSTAR          = .12184E-3
MEAN_MOTION_DOT = .133E-5
MEAN_MOTION_DDOT = 0

CCSDS_OMM_VERS = 2.0
CREATION_DATE  = 
ORIGINATOR     = 

OBJECT_NAME    = USA 81
OBJECT_ID      = 1992-023A
CENTER_NAME    = EARTH
REF_FRAME      = TEME
TIME_SYSTEM    = UTC
MEAN_ELEMENT_THEORY = SGP/SGP4

EPOCH          = 2026-02-04T19:48:46.122912
MEAN_MOTION    = 14.32355172
ECCENTRICITY   = .00025225
INCLINATION    = 85.0120
RA_OF_ASC_NODE = 150.3901
ARG_OF_PERICENTER = 107.0297
MEAN_ANOMALY   = 253.1173

EPHEMERIS_TYPE = 0
CLASSIFICATION_TYPE = U
NORAD_CAT_ID   = 21949
ELEMENT_SET_NO = 999
REV_AT_EPOCH   = 9008
BSTAR          = .91414546E-4
MEAN_MOTION_DOT = .267E-5
MEAN_MOTION_DDOT = 0

CCSDS_OMM_VERS = 2.0
CREATION_DATE  = 
ORIGINATOR     = 

OBJECT_NAME    = COSMOS 2219
OBJECT_ID      = 1992-076A
CENTER_NAME    = EARTH
REF_FRAME      = TEME
TIME_SYSTEM    = UTC
MEAN_ELEMENT_THEORY = SGP/SGP4

EPOCH          = 2026-02-04T13:21:51.801120
MEAN_MOTION    = 14.14077297
ECCENTRICITY   = .002051
INCLINATION    = 71.0589
RA_OF_ASC_NODE = 87.3358
ARG_OF_PERICENTER = 252.8642
MEAN_ANOMALY   = 107.0235

EPHEMERIS_TYPE = 0
CLASSIFICATION_TYPE = U
NORAD_CAT_ID   = 22219
ELEMENT_SET_NO = 999
REV_AT_EPOCH   = 71369
BSTAR          = -.72692271E-4
MEAN_MOTION_DOT = -.186E-5
MEAN_MOTION_DDOT = 0

CCSDS_OMM_VERS = 2.0
CREATION_DATE  = 
ORIGINATOR     = 

OBJECT_NAME    = SL-16 R/B
OBJECT_ID      = 1992-076B
CENTER_NAME    = EARTH
REF_FRAME      = TEME
TIME_SYSTEM    = UTC
MEAN_ELEMENT_THEORY = SGP/SGP4

EPOCH          = 2026-02-05T00:37:52.152384
MEAN_MOTION    = 14.16854195
ECCENTRICITY   = .00117613
INCLINATION    = 70.9982
RA_OF_ASC_NODE = 257.1797
ARG_OF_PERICENTER = 154.0697
MEAN_ANOMALY   = 356.0770

EPHEMERIS_TYPE = 0
CLASSIFICATION_TYPE = U
NORAD_CAT_ID   = 22220
ELEMENT_SET_NO = 999
REV_AT_EPOCH   = 71720
BSTAR          = .15726796E-3
MEAN_MOTION_DOT = .268E-5
MEAN_MOTION_DDOT = 0

CCSDS_OMM_VERS = 2.0
CREATION_DATE  = 
ORIGINATOR     = 

OBJECT_NAME    = COSMOS 2221
OBJECT_ID      = 1992-080A
CENTER_NAME    = EARTH
REF_FRAME      = TEME
TIME_SYSTEM    = UTC
MEAN_ELEMENT_THEORY = SGP/SGP4

EPOCH          = 2026-02-05T03:12:00.805824
MEAN_MOTION    = 14.96066712
ECCENTRICITY   = .00131389
INCLINATION    = 82.5063
RA_OF_ASC_NODE = 310.2592
ARG_OF_PERICENTER = 307.0507
MEAN_ANOMALY   = 52.9513

EPHEMERIS_TYPE = 0
CLASSIFICATION_TYPE = U
NORAD_CAT_ID   = 22236
ELEMENT_SET_NO = 999
REV_AT_EPOCH   = 77592
BSTAR          = .23806103E-3
MEAN_MOTION_DOT = .2703E-4
MEAN_MOTION_DDOT = 0

CCSDS_OMM_VERS = 2.0
CREATION_DATE  = 
ORIGINATOR     = 

OBJECT_NAME    = SL-16 R/B
OBJECT_ID      = 1992-093B
CENTER_NAME    = EARTH
REF_FRAME      = TEME
TIME_SYSTEM    = UTC
MEAN_ELEMENT_THEORY = SGP/SGP4

EPOCH          = 2026-02-05T12:19:58.146816
MEAN_MOTION    = 14.15441546
ECCENTRICITY   = .0005068
INCLINATION    = 71.0203
RA_OF_ASC_NODE = 71.8143
ARG_OF_PERICENTER = 327.2358
MEAN_ANOMALY   = 32.8450

EPHEMERIS_TYPE = 0
CLASSIFICATION_TYPE = U
NORAD_CAT_ID   = 22285
ELEMENT_SET_NO = 999
REV_AT_EPOCH   = 70860
BSTAR          = -.73161E-4
MEAN_MOTION_DOT = -.19E-5
MEAN_MOTION_DDOT = 0

CCSDS_OMM_VERS = 2.0
CREATION_DATE  = 
ORIGINATOR     = 

OBJECT_NAME    = COSMOS 2228
OBJECT_ID      = 1992-094A
CENTER_NAME    = EARTH
REF_FRAME      = TEME
TIME_SYSTEM    = UTC
MEAN_ELEMENT_THEORY = SGP/SGP4

EPOCH          = 2026-02-05T10:31:11.806176
MEAN_MOTION    = 14.97041796
ECCENTRICITY   = .0019312
INCLINATION    = 82.5158
RA_OF_ASC_NODE = 268.1935
ARG_OF_PERICENTER = 53.1392
MEAN_ANOMALY   = 307.1597

EPHEMERIS_TYPE = 0
CLASSIFICATION_TYPE = U
NORAD_CAT_ID   = 22286
ELEMENT_SET_NO = 999
REV_AT_EPOCH   = 77123
BSTAR          = .26893E-3
MEAN_MOTION_DOT = .3134E-4
MEAN_MOTION_DDOT = 0

